{
    "links": {
        "self": "http://www.neowsapp.com/rest/v1/neo/3669147?api_key=iIulBulltgU6a56xZRHN4H3l9WmuAYTsLGpBGhQ2"
    },
    "id": "3669147",
    "neo_reference_id": "3669147",
    "name": "(2014 HU46)",
    "designation": "2014 HU46",
    "nasa_jpl_url": "http://ssd.jpl.nasa.gov/sbdb.cgi?sstr=3669147",
    "absolute_magnitude_h": 27.8,
    "estimated_diameter": {
        "kilometers": {
            "estimated_diameter_min": 0.0073207399,
            "estimated_diameter_max": 0.016369672
        },
        "meters": {
            "estimated_diameter_min": 7.3207398935,
            "estimated_diameter_max": 16.3696720474
        },
        "miles": {
            "estimated_diameter_min": 0.0045488955,
            "estimated_diameter_max": 0.0101716395
        },
        "feet": {
            "estimated_diameter_min": 24.0181762721,
            "estimated_diameter_max": 53.70627484
        }
    },
    "is_potentially_hazardous_asteroid": false,
    "close_approach_data": [
        {
            "close_approach_date": "2013-11-18",
            "close_approach_date_full": "2013-Nov-18 13:16",
            "epoch_date_close_approach": 1384780560000,
            "relative_velocity": {
                "kilometers_per_second": "5.6734271582",
                "kilometers_per_hour": "20424.3377693436",
                "miles_per_hour": "12690.8892100679"
            },
            "miss_distance": {
                "astronomical": "0.474706965",
                "lunar": "184.661009385",
                "kilometers": "71015150.83816455",
                "miles": "44126768.54538879"
            },
            "orbiting_body": "Earth"
        },
        {
            "close_approach_date": "2014-04-12",
            "close_approach_date_full": "2014-Apr-12 02:26",
            "epoch_date_close_approach": 1397269560000,
            "relative_velocity": {
                "kilometers_per_second": "9.6481742778",
                "kilometers_per_hour": "34733.4273999595",
                "miles_per_hour": "21582.001041936"
            },
            "miss_distance": {
                "astronomical": "0.0055034691",
                "lunar": "2.1408494799",
                "kilometers": "823307.254970817",
                "miles": "511579.4059865946"
            },
            "orbiting_body": "Earth"
        },
        {
            "close_approach_date": "2014-04-12",
            "close_approach_date_full": "2014-Apr-12 07:57",
            "epoch_date_close_approach": 1397289420000,
            "relative_velocity": {
                "kilometers_per_second": "8.8793832224",
                "kilometers_per_hour": "31965.7796005634",
                "miles_per_hour": "19862.292330139"
            },
            "miss_distance": {
                "astronomical": "0.0034488336",
                "lunar": "1.3415962704",
                "kilometers": "515938.160544432",
                "miles": "320589.1070478816"
            },
            "orbiting_body": "Moon"
        },
        {
            "close_approach_date": "2158-02-20",
            "close_approach_date_full": "2158-Feb-20 05:24",
            "epoch_date_close_approach": 5937081840000,
            "relative_velocity": {
                "kilometers_per_second": "7.8585666594",
                "kilometers_per_hour": "28290.8399737613",
                "miles_per_hour": "17578.8277603629"
            },
            "miss_distance": {
                "astronomical": "0.1169405466",
                "lunar": "45.4898726274",
                "kilometers": "17494056.687995742",
                "miles": "10870302.7632835596"
            },
            "orbiting_body": "Earth"
        }
    ],
    "orbital_data": {
        "orbit_id": "11",
        "orbit_determination_date": "2017-04-06 08:41:26",
        "first_observation_date": "2014-04-23",
        "last_observation_date": "2014-04-26",
        "data_arc_in_days": 3,
        "observations_used": 20,
        "orbit_uncertainty": "9",
        "minimum_orbit_intersection": ".000374948",
        "jupiter_tisserand_invariant": "4.435",
        "epoch_osculation": "2456772.5",
        "eccentricity": ".4190317803357659",
        "semi_major_axis": "1.504389508848119",
        "inclination": "1.894106754110189",
        "ascending_node_longitude": "200.5292039898074",
        "orbital_period": "673.9673704582298",
        "perihelion_distance": ".8740024946370429",
        "perihelion_argument": "305.2205404424087",
        "aphelion_distance": "2.134776523059194",
        "perihelion_time": "2456716.779773717484",
        "mean_anomaly": "29.76298607463367",
        "mean_motion": ".534150488257668",
        "equinox": "J2000",
        "orbit_class": {
            "orbit_class_type": "APO",
            "orbit_class_description": "Near-Earth asteroid orbits which cross the Earth’s orbit similar to that of 1862 Apollo",
            "orbit_class_range": "a (semi-major axis) > 1.0 AU; q (perihelion) < 1.017 AU"
        }
    },
    "is_sentry_object": false
}